STARLINK-2439           
1 48104U 21027N   26068.51080383  .00006714  00000+0  23866-3 0  9994
2 48104  53.1599 153.6000 0001429  70.5562 289.5594 15.30194399272666
HYPERFIELD-1A           
1 60562U 24149CY  26068.76488211  .00008569  00000+0  30052-3 0  9998
2 60562  97.3842 149.5066 0003865 313.7844  46.3076 15.29681349 86836
